[{"OBJECT_NAME":"OBJECT V","OBJECT_ID":"2023-085V","EPOCH":"2026-03-09T21:44:00.165408","MEAN_MOTION":15.30745852,"ECCENTRICITY":0.00069081,"INCLINATION":97.4843,"RA_OF_ASC_NODE":179.3833,"ARG_OF_PERICENTER":71.0503,"MEAN_ANOMALY":289.1485,"EPHEMERIS_TYPE":0,"CLASSIFICATION_TYPE":"U","NORAD_CAT_ID":57023,"ELEMENT_SET_NO":999,"REV_AT_EPOCH":15149,"BSTAR":0.00067780507,"MEAN_MOTION_DOT":0.00020109,"MEAN_MOTION_DDOT":0},{"OBJECT_NAME":"STARLINK-32708","OBJECT_ID":"2025-003J","EPOCH":"2026-03-08T23:53:21.486048","MEAN_MOTION":15.27608468,"ECCENTRICITY":0.00036607,"INCLINATION":43.0005,"RA_OF_ASC_NODE":293.041,"ARG_OF_PERICENTER":246.3573,"MEAN_ANOMALY":113.6894,"EPHEMERIS_TYPE":0,"CLASSIFICATION_TYPE":"U","NORAD_CAT_ID":62495,"ELEMENT_SET_NO":999,"REV_AT_EPOCH":6644,"BSTAR":0.0016206507,"MEAN_MOTION_DOT":0.0004465,"MEAN_MOTION_DDOT":0}]
